[
  {
    "OBJECT_NAME": "LEGION 3",
    "OBJECT_ID": "2024-146A",
    "EPOCH": "2025-06-21T09:09:31.272480",
    "MEAN_MOTION": 15.158551,
    "ECCENTRICITY": 0.0023377,
    "INCLINATION": 45.0003,
    "RA_OF_ASC_NODE": 164.9716,
    "ARG_OF_PERICENTER": 306.3507,
    "MEAN_ANOMALY": 53.5214,
    "EPHEMERIS_TYPE": 0,
    "CLASSIFICATION_TYPE": "U",
    "NORAD_CAT_ID": 60452,
    "ELEMENT_SET_NO": 999,
    "REV_AT_EPOCH": 4727,
    "BSTAR": 0.00016857,
    "MEAN_MOTION_DOT": 3.031e-05,
    "MEAN_MOTION_DDOT": 0
  },
  {
    "OBJECT_NAME": "LEGION 4",
    "OBJECT_ID": "2024-146B",
    "EPOCH": "2025-06-21T12:19:07.703904",
    "MEAN_MOTION": 15.15851629,
    "ECCENTRICITY": 0.0010855,
    "INCLINATION": 45.0386,
    "RA_OF_ASC_NODE": 255.4074,
    "ARG_OF_PERICENTER": 337.5159,
    "MEAN_ANOMALY": 22.5243,
    "EPHEMERIS_TYPE": 0,
    "CLASSIFICATION_TYPE": "U",
    "NORAD_CAT_ID": 60453,
    "ELEMENT_SET_NO": 999,
    "REV_AT_EPOCH": 4614,
    "BSTAR": 0.00016238,
    "MEAN_MOTION_DOT": 2.897e-05,
    "MEAN_MOTION_DDOT": 0
  },
  {
    "OBJECT_NAME": "SENTINEL-2C",
    "OBJECT_ID": "2024-157A",
    "EPOCH": "2025-06-21T19:45:17.331264",
    "MEAN_MOTION": 14.30811792,
    "ECCENTRICITY": 0.0001167,
    "INCLINATION": 98.5685,
    "RA_OF_ASC_NODE": 247.8598,
    "ARG_OF_PERICENTER": 94.5725,
    "MEAN_ANOMALY": 265.5591,
    "EPHEMERIS_TYPE": 0,
    "CLASSIFICATION_TYPE": "U",
    "NORAD_CAT_ID": 60989,
    "ELEMENT_SET_NO": 999,
    "REV_AT_EPOCH": 4145,
    "BSTAR": 4.2156e-05,
    "MEAN_MOTION_DOT": 6.7e-07,
    "MEAN_MOTION_DDOT": 0
  },
  {
    "OBJECT_NAME": "BIOMASS",
    "OBJECT_ID": "2025-090A",
    "EPOCH": "2025-06-21T11:35:46.610304",
    "MEAN_MOTION": 14.67536725,
    "ECCENTRICITY": 0.0001258,
    "INCLINATION": 98.0754,
    "RA_OF_ASC_NODE": 359.9617,
    "ARG_OF_PERICENTER": 90.095,
    "MEAN_ANOMALY": 270.0398,
    "EPHEMERIS_TYPE": 0,
    "CLASSIFICATION_TYPE": "U",
    "NORAD_CAT_ID": 63772,
    "ELEMENT_SET_NO": 999,
    "REV_AT_EPOCH": 778,
    "BSTAR": 0.00015922,
    "MEAN_MOTION_DOT": 8.55e-06,
    "MEAN_MOTION_DDOT": 0
  }
]