LEGION 3                
1 60452U 24146A   25172.38161195  .00003031  00000+0  16857-3 0  9991
2 60452  45.0003 164.9716 0023377 306.3507  53.5214 15.15855100 47272
LEGION 4                
1 60453U 24146B   25172.51328361  .00002897  00000+0  16238-3 0  9999
2 60453  45.0386 255.4074 0010855 337.5159  22.5243 15.15851629 46141
SENTINEL-2C             
1 60989U 24157A   25172.82311726  .00000067  00000+0  42156-4 0  9992
2 60989  98.5685 247.8598 0001167  94.5725 265.5591 14.30811792 41458
BIOMASS                 
1 63772U 25090A   25172.48317836  .00000855  00000+0  15922-3 0  9997
2 63772  98.0754 359.9617 0001258  90.0950 270.0398 14.67536725  7786
